[{"OBJECT_NAME":"OBJECT C","OBJECT_ID":"2024-018C","EPOCH":"2026-03-09T23:27:02.912256","MEAN_MOTION":14.40497628,"ECCENTRICITY":0.04251116,"INCLINATION":58.684,"RA_OF_ASC_NODE":211.7369,"ARG_OF_PERICENTER":351.7809,"MEAN_ANOMALY":7.6397,"EPHEMERIS_TYPE":0,"CLASSIFICATION_TYPE":"U","NORAD_CAT_ID":58851,"ELEMENT_SET_NO":999,"REV_AT_EPOCH":11099,"BSTAR":0.00023456096,"MEAN_MOTION_DOT":1.991e-5,"MEAN_MOTION_DDOT":0},{"OBJECT_NAME":"FENGYUN 1C DEB","OBJECT_ID":"1999-025AVX","EPOCH":"2026-03-09T21:56:41.987904","MEAN_MOTION":14.14657327,"ECCENTRICITY":0.00311997,"INCLINATION":98.6893,"RA_OF_ASC_NODE":57.7544,"ARG_OF_PERICENTER":245.1422,"MEAN_ANOMALY":144.6163,"EPHEMERIS_TYPE":0,"CLASSIFICATION_TYPE":"U","NORAD_CAT_ID":30837,"ELEMENT_SET_NO":999,"REV_AT_EPOCH":98051,"BSTAR":0.00037874404,"MEAN_MOTION_DOT":6.89e-6,"MEAN_MOTION_DDOT":0}]
